ATLAS CENTAUR 2         
1 00694U 63047A   25307.97000280  .00004034  00000+0  48839-3 0  9997
2 00694  30.3515 177.9554 0550212  52.7564 312.1951 14.11375583113847
THOR AGENA D R/B        
1 00733U 64002A   25308.27508292  .00000325  00000+0  13364-3 0  9997
2 00733  99.1224 309.8121 0031918 263.5723  96.1824 14.33925684220320
SL-3 R/B                
1 00877U 64053B   25308.31450961  .00000370  00000+0  96659-4 0  9995
2 00877  65.0776 338.7636 0070188 333.4374  26.3135 14.61212733248477
SL-8 R/B                
1 02802U 67045B   25308.17479415  .00000417  00000+0  12318-3 0  9999
2 02802  74.0112 222.4693 0065604 260.2153  99.1592 14.45491291 70885
SL-8 R/B                
1 03230U 68040B   25308.15061312  .00004742  00000+0  36134-3 0  9999
2 03230  74.0323 209.9920 0023374  63.1053 297.2520 15.02139926 71156
OAO 2                   
1 03597U 68110A   25308.15264540  .00000317  00000+0  90772-4 0  9994
2 03597  34.9932 246.0751 0006221 269.6286  90.3692 14.47207147   906
ISIS 1                  
1 03669U 69009A   25307.85229721  .00000215  00000+0  15106-3 0  9994
2 03669  88.4533 169.0466 1707838 343.2714  11.8028 11.30332211334318
SERT 2                  
1 04327U 70009A   25308.13704186 -.00000003  00000+0  52830-4 0  9995
2 04327  99.2581 253.2031 0005491 119.3750 251.6224 13.58710563762841
SL-3 R/B                
1 05118U 71028B   25308.21158451  .00032261  00000+0  53425-3 0  9993
2 05118  81.2419 205.8391 0022860  20.5312 339.6849 15.51706909969156
ASTEX 1                 
1 05560U 71089A   25308.21340670  .00000705  00000+0  18000-3 0  9995
2 05560  92.7118 111.1612 0016964 142.0837 218.1568 14.50566910844116
SL-8 R/B                
1 05730U 71119B   25308.28168942  .00005995  00000+0  32013-3 0  9991
2 05730  73.8894  49.5943 0561357  41.7178 322.5388 14.34809577637482
OAO 3 (COPERNICUS)      
1 06153U 72065A   25308.23223899  .00000486  00000+0  10435-3 0  9994
2 06153  35.0061 292.0203 0007082 218.0786 158.8769 14.59853772827854
