CCSDS_OMM_VERS = 2.0
CREATION_DATE  = 
ORIGINATOR     = 

OBJECT_NAME    = ATLAS CENTAUR 2
OBJECT_ID      = 1963-047A
CENTER_NAME    = EARTH
REF_FRAME      = TEME
TIME_SYSTEM    = UTC
MEAN_ELEMENT_THEORY = SGP/SGP4

EPOCH          = 2025-11-03T23:16:48.241920
MEAN_MOTION    = 14.11375583
ECCENTRICITY   = .0550212
INCLINATION    = 30.3515
RA_OF_ASC_NODE = 177.9554
ARG_OF_PERICENTER = 52.7564
MEAN_ANOMALY   = 312.1951

EPHEMERIS_TYPE = 0
CLASSIFICATION_TYPE = U
NORAD_CAT_ID   = 694
ELEMENT_SET_NO = 999
REV_AT_EPOCH   = 11384
BSTAR          = .48839E-3
MEAN_MOTION_DOT = .4034E-4
MEAN_MOTION_DDOT = 0

CCSDS_OMM_VERS = 2.0
CREATION_DATE  = 
ORIGINATOR     = 

OBJECT_NAME    = THOR AGENA D R/B
OBJECT_ID      = 1964-002A
CENTER_NAME    = EARTH
REF_FRAME      = TEME
TIME_SYSTEM    = UTC
MEAN_ELEMENT_THEORY = SGP/SGP4

EPOCH          = 2025-11-04T06:36:07.164288
MEAN_MOTION    = 14.33925684
ECCENTRICITY   = .00319183
INCLINATION    = 99.1224
RA_OF_ASC_NODE = 309.8121
ARG_OF_PERICENTER = 263.5723
MEAN_ANOMALY   = 96.1824

EPHEMERIS_TYPE = 0
CLASSIFICATION_TYPE = U
NORAD_CAT_ID   = 733
ELEMENT_SET_NO = 999
REV_AT_EPOCH   = 22032
BSTAR          = .13364167E-3
MEAN_MOTION_DOT = .325E-5
MEAN_MOTION_DDOT = 0

CCSDS_OMM_VERS = 2.0
CREATION_DATE  = 
ORIGINATOR     = 

OBJECT_NAME    = SL-3 R/B
OBJECT_ID      = 1964-053B
CENTER_NAME    = EARTH
REF_FRAME      = TEME
TIME_SYSTEM    = UTC
MEAN_ELEMENT_THEORY = SGP/SGP4

EPOCH          = 2025-11-04T07:32:53.630304
MEAN_MOTION    = 14.61212733
ECCENTRICITY   = .00701883
INCLINATION    = 65.0776
RA_OF_ASC_NODE = 338.7636
ARG_OF_PERICENTER = 333.4374
MEAN_ANOMALY   = 26.3135

EPHEMERIS_TYPE = 0
CLASSIFICATION_TYPE = U
NORAD_CAT_ID   = 877
ELEMENT_SET_NO = 999
REV_AT_EPOCH   = 24847
BSTAR          = .96659409E-4
MEAN_MOTION_DOT = .37E-5
MEAN_MOTION_DDOT = 0

CCSDS_OMM_VERS = 2.0
CREATION_DATE  = 
ORIGINATOR     = 

OBJECT_NAME    = SL-8 R/B
OBJECT_ID      = 1967-045B
CENTER_NAME    = EARTH
REF_FRAME      = TEME
TIME_SYSTEM    = UTC
MEAN_ELEMENT_THEORY = SGP/SGP4

EPOCH          = 2025-11-04T04:11:42.214560
MEAN_MOTION    = 14.45491291
ECCENTRICITY   = .00656046
INCLINATION    = 74.0112
RA_OF_ASC_NODE = 222.4693
ARG_OF_PERICENTER = 260.2153
MEAN_ANOMALY   = 99.1592

EPHEMERIS_TYPE = 0
CLASSIFICATION_TYPE = U
NORAD_CAT_ID   = 2802
ELEMENT_SET_NO = 999
REV_AT_EPOCH   = 7088
BSTAR          = .12317955E-3
MEAN_MOTION_DOT = .417E-5
MEAN_MOTION_DDOT = 0

CCSDS_OMM_VERS = 2.0
CREATION_DATE  = 
ORIGINATOR     = 

OBJECT_NAME    = SL-8 R/B
OBJECT_ID      = 1968-040B
CENTER_NAME    = EARTH
REF_FRAME      = TEME
TIME_SYSTEM    = UTC
MEAN_ELEMENT_THEORY = SGP/SGP4

EPOCH          = 2025-11-04T03:36:52.973568
MEAN_MOTION    = 15.02139926
ECCENTRICITY   = .00233745
INCLINATION    = 74.0323
RA_OF_ASC_NODE = 209.9920
ARG_OF_PERICENTER = 63.1053
MEAN_ANOMALY   = 297.2520

EPHEMERIS_TYPE = 0
CLASSIFICATION_TYPE = U
NORAD_CAT_ID   = 3230
ELEMENT_SET_NO = 999
REV_AT_EPOCH   = 7115
BSTAR          = .3613422E-3
MEAN_MOTION_DOT = .4742E-4
MEAN_MOTION_DDOT = 0

CCSDS_OMM_VERS = 2.0
CREATION_DATE  = 
ORIGINATOR     = 

OBJECT_NAME    = OAO 2
OBJECT_ID      = 1968-110A
CENTER_NAME    = EARTH
REF_FRAME      = TEME
TIME_SYSTEM    = UTC
MEAN_ELEMENT_THEORY = SGP/SGP4

EPOCH          = 2025-11-04T03:39:48.562560
MEAN_MOTION    = 14.47207147
ECCENTRICITY   = .0006221
INCLINATION    = 34.9932
RA_OF_ASC_NODE = 246.0751
ARG_OF_PERICENTER = 269.6286
MEAN_ANOMALY   = 90.3692

EPHEMERIS_TYPE = 0
CLASSIFICATION_TYPE = U
NORAD_CAT_ID   = 3597
ELEMENT_SET_NO = 999
REV_AT_EPOCH   = 90
BSTAR          = .90771694E-4
MEAN_MOTION_DOT = .317E-5
MEAN_MOTION_DDOT = 0

CCSDS_OMM_VERS = 2.0
CREATION_DATE  = 
ORIGINATOR     = 

OBJECT_NAME    = ISIS 1
OBJECT_ID      = 1969-009A
CENTER_NAME    = EARTH
REF_FRAME      = TEME
TIME_SYSTEM    = UTC
MEAN_ELEMENT_THEORY = SGP/SGP4

EPOCH          = 2025-11-03T20:27:18.478944
MEAN_MOTION    = 11.30332211
ECCENTRICITY   = .1707838
INCLINATION    = 88.4533
RA_OF_ASC_NODE = 169.0466
ARG_OF_PERICENTER = 343.2714
MEAN_ANOMALY   = 11.8028

EPHEMERIS_TYPE = 0
CLASSIFICATION_TYPE = U
NORAD_CAT_ID   = 3669
ELEMENT_SET_NO = 999
REV_AT_EPOCH   = 33431
BSTAR          = .15106E-3
MEAN_MOTION_DOT = .215E-5
MEAN_MOTION_DDOT = 0

CCSDS_OMM_VERS = 2.0
CREATION_DATE  = 
ORIGINATOR     = 

OBJECT_NAME    = SERT 2
OBJECT_ID      = 1970-009A
CENTER_NAME    = EARTH
REF_FRAME      = TEME
TIME_SYSTEM    = UTC
MEAN_ELEMENT_THEORY = SGP/SGP4

EPOCH          = 2025-11-04T03:17:20.416704
MEAN_MOTION    = 13.58710563
ECCENTRICITY   = .0005491
INCLINATION    = 99.2581
RA_OF_ASC_NODE = 253.2031
ARG_OF_PERICENTER = 119.3750
MEAN_ANOMALY   = 251.6224

EPHEMERIS_TYPE = 0
CLASSIFICATION_TYPE = U
NORAD_CAT_ID   = 4327
ELEMENT_SET_NO = 999
REV_AT_EPOCH   = 76284
BSTAR          = .5282956E-4
MEAN_MOTION_DOT = -.3E-7
MEAN_MOTION_DDOT = 0

CCSDS_OMM_VERS = 2.0
CREATION_DATE  = 
ORIGINATOR     = 

OBJECT_NAME    = SL-3 R/B
OBJECT_ID      = 1971-028B
CENTER_NAME    = EARTH
REF_FRAME      = TEME
TIME_SYSTEM    = UTC
MEAN_ELEMENT_THEORY = SGP/SGP4

EPOCH          = 2025-11-04T05:04:40.901664
MEAN_MOTION    = 15.51706909
ECCENTRICITY   = .002286
INCLINATION    = 81.2419
RA_OF_ASC_NODE = 205.8391
ARG_OF_PERICENTER = 20.5312
MEAN_ANOMALY   = 339.6849

EPHEMERIS_TYPE = 0
CLASSIFICATION_TYPE = U
NORAD_CAT_ID   = 5118
ELEMENT_SET_NO = 999
REV_AT_EPOCH   = 96915
BSTAR          = .53425247E-3
MEAN_MOTION_DOT = .32261E-3
MEAN_MOTION_DDOT = 0

CCSDS_OMM_VERS = 2.0
CREATION_DATE  = 
ORIGINATOR     = 

OBJECT_NAME    = ASTEX 1
OBJECT_ID      = 1971-089A
CENTER_NAME    = EARTH
REF_FRAME      = TEME
TIME_SYSTEM    = UTC
MEAN_ELEMENT_THEORY = SGP/SGP4

EPOCH          = 2025-11-04T05:07:18.338880
MEAN_MOTION    = 14.50566910
ECCENTRICITY   = .0016964
INCLINATION    = 92.7118
RA_OF_ASC_NODE = 111.1612
ARG_OF_PERICENTER = 142.0837
MEAN_ANOMALY   = 218.1568

EPHEMERIS_TYPE = 0
CLASSIFICATION_TYPE = U
NORAD_CAT_ID   = 5560
ELEMENT_SET_NO = 999
REV_AT_EPOCH   = 84411
BSTAR          = .18000146E-3
MEAN_MOTION_DOT = .705E-5
MEAN_MOTION_DDOT = 0

CCSDS_OMM_VERS = 2.0
CREATION_DATE  = 
ORIGINATOR     = 

OBJECT_NAME    = SL-8 R/B
OBJECT_ID      = 1971-119B
CENTER_NAME    = EARTH
REF_FRAME      = TEME
TIME_SYSTEM    = UTC
MEAN_ELEMENT_THEORY = SGP/SGP4

EPOCH          = 2025-11-04T06:45:37.965888
MEAN_MOTION    = 14.34809577
ECCENTRICITY   = .05613574
INCLINATION    = 73.8894
RA_OF_ASC_NODE = 49.5943
ARG_OF_PERICENTER = 41.7178
MEAN_ANOMALY   = 322.5388

EPHEMERIS_TYPE = 0
CLASSIFICATION_TYPE = U
NORAD_CAT_ID   = 5730
ELEMENT_SET_NO = 999
REV_AT_EPOCH   = 63748
BSTAR          = .3201331E-3
MEAN_MOTION_DOT = .5995E-4
MEAN_MOTION_DDOT = 0

CCSDS_OMM_VERS = 2.0
CREATION_DATE  = 
ORIGINATOR     = 

OBJECT_NAME    = OAO 3 (COPERNICUS)
OBJECT_ID      = 1972-065A
CENTER_NAME    = EARTH
REF_FRAME      = TEME
TIME_SYSTEM    = UTC
MEAN_ELEMENT_THEORY = SGP/SGP4

EPOCH          = 2025-11-04T05:34:25.448736
MEAN_MOTION    = 14.59853772
ECCENTRICITY   = .00070826
INCLINATION    = 35.0061
RA_OF_ASC_NODE = 292.0203
ARG_OF_PERICENTER = 218.0786
MEAN_ANOMALY   = 158.8769

EPHEMERIS_TYPE = 0
CLASSIFICATION_TYPE = U
NORAD_CAT_ID   = 6153
ELEMENT_SET_NO = 999
REV_AT_EPOCH   = 82785
BSTAR          = .1043489E-3
MEAN_MOTION_DOT = .486E-5
MEAN_MOTION_DDOT = 0

